{
  "type": "FeatureCollection",
  "features": [
    {
      "type": "Feature",
      "properties": {
        "norad_id": 22675,
        "name": "COSMOS 2251",
        "group": "cosmos-2251-debris",
        "lat": 74.01579015006163,
        "lon": 44.61800927189503,
        "alt_km": 764.1775255714929,
        "timestamp": "2025-12-14T18:52:55.895696+00:00",
        "meta_object_name": "COSMOS 2251",
        "meta_object_id": "1993-036A",
        "meta_epoch": "2025-12-14T00:02:05.726688",
        "meta_mean_motion": 14.33205244,
        "meta_eccentricity": 0.00240108,
        "meta_inclination": 74.0397,
        "meta_ra_of_asc_node": 313.578,
        "meta_arg_of_pericenter": 35.4797,
        "meta_mean_anomaly": 324.7946,
        "meta_ephemeris_type": 0,
        "meta_classification_type": "U",
        "meta_norad_cat_id": 22675,
        "meta_element_set_no": 999,
        "meta_rev_at_epoch": 69791,
        "meta_bstar": 7.329951e-05,
        "meta_mean_motion_dot": 1.76e-06,
        "meta_mean_motion_ddot": 0,
        "tle_line1": "1 22675U 93036A   25348.00145517  .00000176  00000+0  73300-4 0  9998",
        "tle_line2": "2 22675  74.0397 313.5780 0024010  35.4797 324.7946 14.33205244697918"
      },
      "geometry": {
        "type": "Point",
        "coordinates": [
          44.61800927189503,
          74.01579015006163
        ]
      }
    },
    {
      "type": "Feature",
      "properties": {
        "norad_id": 33757,
        "name": "COSMOS 2251 DEB",
        "group": "cosmos-2251-debris",
        "lat": 52.12021898204009,
        "lon": 118.2839562261807,
        "alt_km": 787.5765546134135,
        "timestamp": "2025-12-14T18:52:55.895720+00:00",
        "meta_object_name": "COSMOS 2251 DEB",
        "meta_object_id": "1993-036E",
        "meta_epoch": "2025-12-14T00:07:42.482784",
        "meta_mean_motion": 14.32581379,
        "meta_eccentricity": 0.0015295,
        "meta_inclination": 74.0369,
        "meta_ra_of_asc_node": 321.2991,
        "meta_arg_of_pericenter": 334.3327,
        "meta_mean_anomaly": 82.0194,
        "meta_ephemeris_type": 0,
        "meta_classification_type": "U",
        "meta_norad_cat_id": 33757,
        "meta_element_set_no": 999,
        "meta_rev_at_epoch": 88014,
        "meta_bstar": 6.3640793e-05,
        "meta_mean_motion_dot": 1.47e-06,
        "meta_mean_motion_ddot": 0,
        "tle_line1": "1 33757U 93036E   25348.00535281  .00000147  00000+0  63641-4 0  9997",
        "tle_line2": "2 33757  74.0369 321.2991 0015295 334.3327  82.0194 14.32581379880148"
      },
      "geometry": {
        "type": "Point",
        "coordinates": [
          118.2839562261807,
          52.12021898204009
        ]
      }
    },
    {
      "type": "Feature",
      "properties": {
        "norad_id": 33758,
        "name": "COSMOS 2251 DEB",
        "group": "cosmos-2251-debris",
        "lat": -28.81166607986681,
        "lon": 40.23833663241675,
        "alt_km": 721.2132213574932,
        "timestamp": "2025-12-14T18:52:55.895734+00:00",
        "meta_object_name": "COSMOS 2251 DEB",
        "meta_object_id": "1993-036F",
        "meta_epoch": "2025-12-13T22:08:11.597280",
        "meta_mean_motion": 14.51605346,
        "meta_eccentricity": 0.00173738,
        "meta_inclination": 74.028,
        "meta_ra_of_asc_node": 212.8024,
        "meta_arg_of_pericenter": 279.5543,
        "meta_mean_anomaly": 95.2708,
        "meta_ephemeris_type": 0,
        "meta_classification_type": "U",
        "meta_norad_cat_id": 33758,
        "meta_element_set_no": 999,
        "meta_rev_at_epoch": 88322,
        "meta_bstar": 0.0009291215,
        "meta_mean_motion_dot": 3.703e-05,
        "meta_mean_motion_ddot": 0,
        "tle_line1": "1 33758U 93036F   25347.92235645  .00003703  00000+0  92912-3 0  9992",
        "tle_line2": "2 33758  74.0280 212.8024 0017373 279.5543  95.2708 14.51605346883223"
      },
      "geometry": {
        "type": "Point",
        "coordinates": [
          40.23833663241675,
          -28.81166607986681
        ]
      }
    },
    {
      "type": "Feature",
      "properties": {
        "norad_id": 33760,
        "name": "COSMOS 2251 DEB",
        "group": "cosmos-2251-debris",
        "lat": 33.17347947684053,
        "lon": -71.51213861745715,
        "alt_km": 756.9679487836001,
        "timestamp": "2025-12-14T18:52:55.895747+00:00",
        "meta_object_name": "COSMOS 2251 DEB",
        "meta_object_id": "1993-036H",
        "meta_epoch": "2025-12-13T22:59:48.759072",
        "meta_mean_motion": 14.35673762,
        "meta_eccentricity": 0.00199238,
        "meta_inclination": 74.0322,
        "meta_ra_of_asc_node": 279.2199,
        "meta_arg_of_pericenter": 17.2415,
        "meta_mean_anomaly": 56.8608,
        "meta_ephemeris_type": 0,
        "meta_classification_type": "U",
        "meta_norad_cat_id": 33760,
        "meta_element_set_no": 999,
        "meta_rev_at_epoch": 88142,
        "meta_bstar": 0.00015150437,
        "meta_mean_motion_dot": 4.12e-06,
        "meta_mean_motion_ddot": 0,
        "tle_line1": "1 33760U 93036H   25347.95820323  .00000412  00000+0  15150-3 0  9994",
        "tle_line2": "2 33760  74.0322 279.2199 0019923  17.2415  56.8608 14.35673762881422"
      },
      "geometry": {
        "type": "Point",
        "coordinates": [
          -71.51213861745715,
          33.17347947684053
        ]
      }
    },
    {
      "type": "Feature",
      "properties": {
        "norad_id": 33761,
        "name": "COSMOS 2251 DEB",
        "group": "cosmos-2251-debris",
        "lat": 13.629159786836409,
        "lon": -107.65459431999084,
        "alt_km": 739.2782263507133,
        "timestamp": "2025-12-14T18:52:55.895759+00:00",
        "meta_object_name": "COSMOS 2251 DEB",
        "meta_object_id": "1993-036J",
        "meta_epoch": "2025-12-13T19:51:37.692576",
        "meta_mean_motion": 14.42550197,
        "meta_eccentricity": 0.00231133,
        "meta_inclination": 74.0367,
        "meta_ra_of_asc_node": 250.1447,
        "meta_arg_of_pericenter": 330.3737,
        "meta_mean_anomaly": 104.2435,
        "meta_ephemeris_type": 0,
        "meta_classification_type": "U",
        "meta_norad_cat_id": 33761,
        "meta_element_set_no": 999,
        "meta_rev_at_epoch": 88250,
        "meta_bstar": 0.00062024331,
        "meta_mean_motion_dot": 2.038e-05,
        "meta_mean_motion_ddot": 0,
        "tle_line1": "1 33761U 93036J   25347.82751959  .00002038  00000+0  62024-3 0  9997",
        "tle_line2": "2 33761  74.0367 250.1447 0023113 330.3737 104.2435 14.42550197882508"
      },
      "geometry": {
        "type": "Point",
        "coordinates": [
          -107.65459431999084,
          13.629159786836409
        ]
      }
    },
    {
      "type": "Feature",
      "properties": {
        "norad_id": 33762,
        "name": "COSMOS 2251 DEB",
        "group": "cosmos-2251-debris",
        "lat": -40.37846292739242,
        "lon": -67.79919755611307,
        "alt_km": 778.6725723172158,
        "timestamp": "2025-12-14T18:52:55.895771+00:00",
        "meta_object_name": "COSMOS 2251 DEB",
        "meta_object_id": "1993-036K",
        "meta_epoch": "2025-12-13T23:14:40.313760",
        "meta_mean_motion": 14.33664228,
        "meta_eccentricity": 0.00150499,
        "meta_inclination": 74.0417,
        "meta_ra_of_asc_node": 307.7799,
        "meta_arg_of_pericenter": 8.9462,
        "meta_mean_anomaly": 47.535,
        "meta_ephemeris_type": 0,
        "meta_classification_type": "U",
        "meta_norad_cat_id": 33762,
        "meta_element_set_no": 999,
        "meta_rev_at_epoch": 88065,
        "meta_bstar": 7.4271794e-05,
        "meta_mean_motion_dot": 1.8e-06,
        "meta_mean_motion_ddot": 0,
        "tle_line1": "1 33762U 93036K   25347.96852215  .00000180  00000+0  74272-4 0  9995",
        "tle_line2": "2 33762  74.0417 307.7799 0015049   8.9462  47.5350 14.33664228880656"
      },
      "geometry": {
        "type": "Point",
        "coordinates": [
          -67.79919755611307,
          -40.37846292739242
        ]
      }
    },
    {
      "type": "Feature",
      "properties": {
        "norad_id": 33764,
        "name": "COSMOS 2251 DEB",
        "group": "cosmos-2251-debris",
        "lat": 37.677301412058796,
        "lon": 76.10442126048761,
        "alt_km": 758.0739801394402,
        "timestamp": "2025-12-14T18:52:55.895782+00:00",
        "meta_object_name": "COSMOS 2251 DEB",
        "meta_object_id": "1993-036M",
        "meta_epoch": "2025-12-13T22:33:02.118240",
        "meta_mean_motion": 14.39513688,
        "meta_eccentricity": 0.00238857,
        "meta_inclination": 74.0336,
        "meta_ra_of_asc_node": 270.4414,
        "meta_arg_of_pericenter": 235.9894,
        "meta_mean_anomaly": 196.347,
        "meta_ephemeris_type": 0,
        "meta_classification_type": "U",
        "meta_norad_cat_id": 33764,
        "meta_element_set_no": 999,
        "meta_rev_at_epoch": 88174,
        "meta_bstar": 0.00045366804,
        "meta_mean_motion_dot": 1.393e-05,
        "meta_mean_motion_ddot": 0,
        "tle_line1": "1 33764U 93036M   25347.93960785  .00001393  00000+0  45367-3 0  9995",
        "tle_line2": "2 33764  74.0336 270.4414 0023885 235.9894 196.3470 14.39513688881742"
      },
      "geometry": {
        "type": "Point",
        "coordinates": [
          76.10442126048761,
          37.677301412058796
        ]
      }
    }
  ]
}